IRIDIUM 63              
1 25286U 98021B   26013.17659988  .00000352  00000+0  11268-3 0  9998
2 25286  86.3995 354.0202 0002057  83.0394 277.1038 14.36766452453994
IRIDIUM 69              
1 25319U 98026A   26013.23579270  .00000343  00000+0  10003-3 0  9998
2 25319  86.3979   6.6191 0004367  68.6432 291.5234 14.41248541453312
IRIDIUM 71              
1 25320U 98026B   26013.22046410  .00000284  00000+0  81604-4 0  9994
2 25320  86.3982   1.2965 0004194 101.4248 258.7423 14.41341377453841
IRIDIUM 73              
1 25344U 98032C   26013.20368573  .00000566  00000+0  13497-3 0  9999
2 25344  86.4433 317.6194 0002473  70.0203 290.1269 14.52041935461034
IRIDIUM 82              
1 25467U 98051A   26012.93382157  .00032328  00000+0  54418-3 0  9998
2 25467  86.3594   5.3631 0056050 207.6672 152.1603 15.49741617456227
